start=new Date('2023-05-01T00:00:00.000Z').valueOf();
sats=[{"EPOCH":"2023-04-30T13:20:19.927680","ELEMENT_SET_NO":"999","ECCENTRICITY":"0.00013360","SEMIMAJOR_AXIS":"6925.410","BSTAR":"0.00067932000000","COUNTRY_CODE":"US","EPHEMERIS_TYPE":"0","SITE":"AFETR","PERIAPSIS":"546.350","RCS_SIZE":"LARGE","MEAN_ANOMALY":"290.7904","PERIOD":"95.593","INCLINATION":"53.0532","OBJECT_NAME":"STARLINK-1042","ARG_OF_PERICENTER":"69.3228","REF_FRAME":"TEME","FILE":"3897442","RA_OF_ASC_NODE":"233.9150","MEAN_MOTION":"15.06379935","TLE_LINE2":"2 44747  53.0532 233.9150 0001336  69.3228 290.7904 15.06379935190821","REV_AT_EPOCH":"19082","DECAY_DATE":null,"MEAN_MOTION_DOT":"0.00009846","MEAN_ELEMENT_THEORY":"SGP4","CENTER_NAME":"EARTH","TIME_SYSTEM":"UTC","OBJECT_TYPE":"PAYLOAD","GP_ID":"230971411","MEAN_MOTION_DDOT":"0.0000000000000","APOAPSIS":"548.200","OBJECT_ID":"2019-074AL","CLASSIFICATION_TYPE":"U","TLE_LINE1":"1 44747U 19074AL  23120.55578620  .00009846  00000-0  67932-3 0  9990","LAUNCH_DATE":"2019-11-11","NORAD_CAT_ID":"44747"},{"SITE":"AFETR","PERIAPSIS":"546.548","INCLINATION":"53.0532","PERIOD":"95.593","MEAN_ANOMALY":"274.5455","RCS_SIZE":"LARGE","ARG_OF_PERICENTER":"85.5650","OBJECT_NAME":"STARLINK-1043","SEMIMAJOR_AXIS":"6925.382","ECCENTRICITY":"0.00010090","ELEMENT_SET_NO":"999","EPOCH":"2023-04-30T14:02:45.819456","BSTAR":"0.00020542000000","EPHEMERIS_TYPE":"0","COUNTRY_CODE":"US","TIME_SYSTEM":"UTC","CENTER_NAME":"EARTH","OBJECT_ID":"2019-074AM","MEAN_MOTION_DDOT":"0.0000000000000","APOAPSIS":"547.946","GP_ID":"230971662","OBJECT_TYPE":"PAYLOAD","NORAD_CAT_ID":"44748","TLE_LINE1":"1 44748U 19074AM  23120.58525254  .00002779  00000-0  20542-3 0  9993","CLASSIFICATION_TYPE":"U","LAUNCH_DATE":"2019-11-11","REF_FRAME":"TEME","REV_AT_EPOCH":"19082","TLE_LINE2":"2 44748  53.0532 233.7817 0001009  85.5650 274.5455 15.06389001190822","MEAN_MOTION":"15.06389001","RA_OF_ASC_NODE":"233.7817","FILE":"3897442","MEAN_ELEMENT_THEORY":"SGP4","MEAN_MOTION_DOT":"0.00002779","DECAY_DATE":null},{"REF_FRAME":"TEME","MEAN_MOTION_DOT":"0.00013624","DECAY_DATE":null,"MEAN_ELEMENT_THEORY":"SGP4","RA_OF_ASC_NODE":"234.0120","FILE":"3897442","REV_AT_EPOCH":"19081","TLE_LINE2":"2 44751  53.0528 234.0120 0001511  81.9671 278.1489 15.06389733190811","MEAN_MOTION":"15.06389733","CENTER_NAME":"EARTH","TIME_SYSTEM":"UTC","CLASSIFICATION_TYPE":"U","TLE_LINE1":"1 44751U 19074AQ  23120.53366505  .00013624  00000-0  93199-3 0  9993","LAUNCH_DATE":"2019-11-11","NORAD_CAT_ID":"44751","GP_ID":"230972413","OBJECT_TYPE":"PAYLOAD","OBJECT_ID":"2019-074AQ","APOAPSIS":"548.291","MEAN_MOTION_DDOT":"0.0000000000000","BSTAR":"0.00093199000000","ECCENTRICITY":"0.00015110","EPOCH":"2023-04-30T12:48:28.660320","ELEMENT_SET_NO":"999","SEMIMAJOR_AXIS":"6925.380","COUNTRY_CODE":"US","EPHEMERIS_TYPE":"0","PERIAPSIS":"546.199","SITE":"AFETR","ARG_OF_PERICENTER":"81.9671","OBJECT_NAME":"STARLINK-1046","RCS_SIZE":"LARGE","PERIOD":"95.593","INCLINATION":"53.0528","MEAN_ANOMALY":"278.1489"},{"FILE":"3897442","RA_OF_ASC_NODE":"214.2234","MEAN_MOTION":"15.06402855","REV_AT_EPOCH":"19108","TLE_LINE2":"2 44752  53.0546 214.2234 0001326  82.0681 278.0458 15.06402855191081","DECAY_DATE":null,"MEAN_MOTION_DOT":"-0.00002824","MEAN_ELEMENT_THEORY":"SGP4","REF_FRAME":"TEME","OBJECT_TYPE":"PAYLOAD","GP_ID":"230970661","APOAPSIS":"548.123","MEAN_MOTION_DDOT":"0.0000000000000","OBJECT_ID":"2019-074AR","LAUNCH_DATE":"2019-11-11","TLE_LINE1":"1 44752U 19074AR  23120.48759203 -.00002824  00000-0 -17076-3 0  9991","CLASSIFICATION_TYPE":"U","NORAD_CAT_ID":"44752","TIME_SYSTEM":"UTC","CENTER_NAME":"EARTH","COUNTRY_CODE":"US","EPHEMERIS_TYPE":"0","ELEMENT_SET_NO":"999","EPOCH":"2023-04-30T11:42:07.951392","ECCENTRICITY":"0.00013260","SEMIMAJOR_AXIS":"6925.340","BSTAR":"-0.00017076000000","RCS_SIZE":"LARGE","MEAN_ANOMALY":"278.0458","PERIOD":"95.592","INCLINATION":"53.0546","OBJECT_NAME":"STARLINK-1047","ARG_OF_PERICENTER":"82.0681","SITE":"AFETR","PERIAPSIS":"546.287"},{"EPHEMERIS_TYPE":"0","COUNTRY_CODE":"US","SEMIMAJOR_AXIS":"6925.390","ECCENTRICITY":"0.00013000","EPOCH":"2023-04-30T11:50:04.053408","ELEMENT_SET_NO":"999","BSTAR":"0.00009448800000","PERIOD":"95.593","INCLINATION":"53.0535","MEAN_ANOMALY":"260.7839","RCS_SIZE":"LARGE","ARG_OF_PERICENTER":"99.3297","OBJECT_NAME":"STARLINK-1048","SITE":"AFETR","PERIAPSIS":"546.355","REV_AT_EPOCH":"19153","TLE_LINE2":"2 44753  53.0535 194.1940 0001300  99.3297 260.7839 15.06386322191537","MEAN_MOTION":"15.06386322","RA_OF_ASC_NODE":"194.1940","FILE":"3897582","MEAN_ELEMENT_THEORY":"SGP4","MEAN_MOTION_DOT":"0.00001126","DECAY_DATE":null,"REF_FRAME":"TEME","OBJECT_ID":"2019-074AS","APOAPSIS":"548.156","MEAN_MOTION_DDOT":"0.0000000000000","GP_ID":"230983574","OBJECT_TYPE":"PAYLOAD","NORAD_CAT_ID":"44753","CLASSIFICATION_TYPE":"U","TLE_LINE1":"1 44753U 19074AS  23120.49310247  .00001126  00000-0  94488-4 0  9999","LAUNCH_DATE":"2019-11-11","CENTER_NAME":"EARTH","TIME_SYSTEM":"UTC"},{"OBJECT_TYPE":"PAYLOAD","GP_ID":"230972163","APOAPSIS":"339.225","MEAN_MOTION_DDOT":"0.0000000000000","OBJECT_ID":"2019-074AT","CLASSIFICATION_TYPE":"U","TLE_LINE1":"1 44754U 19074AT  23120.58334491  .00156054  00000-0  91793-3 0  9993","LAUNCH_DATE":"2019-11-11","NORAD_CAT_ID":"44754","CENTER_NAME":"EARTH","TIME_SYSTEM":"UTC","FILE":"3897442","RA_OF_ASC_NODE":"185.6164","MEAN_MOTION":"15.77264293","TLE_LINE2":"2 44754  53.0532 185.6164 0001529  72.5611 227.8419 15.77264293  1307","REV_AT_EPOCH":"130","DECAY_DATE":null,"MEAN_MOTION_DOT":"0.00156054","MEAN_ELEMENT_THEORY":"SGP4","REF_FRAME":"TEME","RCS_SIZE":"LARGE","MEAN_ANOMALY":"227.8419","PERIOD":"91.297","INCLINATION":"53.0532","OBJECT_NAME":"STARLINK-1049","ARG_OF_PERICENTER":"72.5611","SITE":"AFETR","PERIAPSIS":"337.171","COUNTRY_CODE":"US","EPHEMERIS_TYPE":"0","ELEMENT_SET_NO":"999","EPOCH":"2023-04-30T14:00:01.000224","ECCENTRICITY":"0.00015290","SEMIMAJOR_AXIS":"6716.333","BSTAR":"0.00091793000000"},{"EPHEMERIS_TYPE":"0","COUNTRY_CODE":"US","BSTAR":"0.00027478000000","SEMIMAJOR_AXIS":"6925.400","EPOCH":"2023-04-30T13:33:34.456896","ELEMENT_SET_NO":"999","ECCENTRICITY":"0.00013690","OBJECT_NAME":"STARLINK-1052","ARG_OF_PERICENTER":"84.5285","MEAN_ANOMALY":"275.5860","PERIOD":"95.593","INCLINATION":"53.0537","RCS_SIZE":"LARGE","PERIAPSIS":"546.317","SITE":"AFETR","MEAN_ELEMENT_THEORY":"SGP4","DECAY_DATE":null,"MEAN_MOTION_DOT":"0.00003812","MEAN_MOTION":"15.06383276","TLE_LINE2":"2 44757  53.0537 213.8739 0001369  84.5285 275.5860 15.06383276191090","REV_AT_EPOCH":"19109","FILE":"3897442","RA_OF_ASC_NODE":"213.8739","REF_FRAME":"TEME","NORAD_CAT_ID":"44757","TLE_LINE1":"1 44757U 19074AW  23120.56498214  .00003812  00000-0  27478-3 0  9990","CLASSIFICATION_TYPE":"U","LAUNCH_DATE":"2019-11-11","MEAN_MOTION_DDOT":"0.0000000000000","APOAPSIS":"548.213","OBJECT_ID":"2019-074AW","OBJECT_TYPE":"PAYLOAD","GP_ID":"230971913","TIME_SYSTEM":"UTC","CENTER_NAME":"EARTH"},{"FILE":"3897442","RA_OF_ASC_NODE":"233.8865","MEAN_MOTION":"15.06392837","TLE_LINE2":"2 44758  53.0519 233.8865 0000213  99.6975 260.4038 15.06392837190826","REV_AT_EPOCH":"19082","DECAY_DATE":null,"MEAN_MOTION_DOT":"0.00004020","MEAN_ELEMENT_THEORY":"SGP4","REF_FRAME":"TEME","OBJECT_TYPE":"PAYLOAD","GP_ID":"230971162","APOAPSIS":"547.383","MEAN_MOTION_DDOT":"0.0000000000000","OBJECT_ID":"2019-074AX","TLE_LINE1":"1 44758U 19074AX  23120.58159711  .00004020  00000-0  28867-3 0  9994","CLASSIFICATION_TYPE":"U","LAUNCH_DATE":"2019-11-11","NORAD_CAT_ID":"44758","CENTER_NAME":"EARTH","TIME_SYSTEM":"UTC","COUNTRY_CODE":"US","EPHEMERIS_TYPE":"0","EPOCH":"2023-04-30T13:57:29.990304","ELEMENT_SET_NO":"999","ECCENTRICITY":"0.00002130","SEMIMAJOR_AXIS":"6925.371","BSTAR":"0.00028867000000","RCS_SIZE":"LARGE","MEAN_ANOMALY":"260.4038","INCLINATION":"53.0519","PERIOD":"95.593","OBJECT_NAME":"STARLINK-1053","ARG_OF_PERICENTER":"99.6975","SITE":"AFETR","PERIAPSIS":"547.088"},{"BSTAR":"-0.00022265000000","ELEMENT_SET_NO":"999","EPOCH":"2023-04-30T13:30:55.730592","ECCENTRICITY":"0.00012280","SEMIMAJOR_AXIS":"6925.420","COUNTRY_CODE":"US","EPHEMERIS_TYPE":"0","PERIAPSIS":"546.435","SITE":"AFETR","OBJECT_NAME":"STARLINK-1054","ARG_OF_PERICENTER":"73.6274","RCS_SIZE":"LARGE","MEAN_ANOMALY":"286.4850","PERIOD":"95.594","INCLINATION":"53.0531","REF_FRAME":"TEME","DECAY_DATE":null,"MEAN_MOTION_DOT":"-0.00003594","MEAN_ELEMENT_THEORY":"SGP4","FILE":"3897442","RA_OF_ASC_NODE":"233.8827","MEAN_MOTION":"15.06376637","TLE_LINE2":"2 44759  53.0531 233.8827 0001228  73.6274 286.4850 15.06376637188467","REV_AT_EPOCH":"18846","TIME_SYSTEM":"UTC","CENTER_NAME":"EARTH","LAUNCH_DATE":"2019-11-11","TLE_LINE1":"1 44759U 19074AY  23120.56314503 -.00003594  00000-0 -22265-3 0  9998","CLASSIFICATION_TYPE":"U","NORAD_CAT_ID":"44759","OBJECT_TYPE":"PAYLOAD","GP_ID":"230971412","APOAPSIS":"548.136","MEAN_MOTION_DDOT":"0.0000000000000","OBJECT_ID":"2019-074AY"},{"SITE":"AFETR","PERIAPSIS":"520.974","RCS_SIZE":"LARGE","PERIOD":"95.078","INCLINATION":"53.0528","MEAN_ANOMALY":"8.8450","ARG_OF_PERICENTER":"351.2506","OBJECT_NAME":"STARLINK-1055","ECCENTRICITY":"0.00020210","ELEMENT_SET_NO":"999","EPOCH":"2023-04-30T13:55:44.358528","SEMIMAJOR_AXIS":"6900.503","BSTAR":"0.00184960000000","COUNTRY_CODE":"US","EPHEMERIS_TYPE":"0","CENTER_NAME":"EARTH","TIME_SYSTEM":"UTC","GP_ID":"230971663","OBJECT_TYPE":"PAYLOAD","OBJECT_ID":"2019-074AZ","APOAPSIS":"523.763","MEAN_MOTION_DDOT":"0.0000000000000","TLE_LINE1":"1 44760U 19074AZ  23120.58037452  .00034358  00000-0  18496-2 0  9997","CLASSIFICATION_TYPE":"U","LAUNCH_DATE":"2019-11-11","NORAD_CAT_ID":"44760","REF_FRAME":"TEME","RA_OF_ASC_NODE":"230.6573","FILE":"3897442","TLE_LINE2":"2 44760  53.0528 230.6573 0002021 351.2506   8.8450 15.14542950190875","REV_AT_EPOCH":"19087","MEAN_MOTION":"15.14542950","MEAN_MOTION_DOT":"0.00034358","DECAY_DATE":null,"MEAN_ELEMENT_THEORY":"SGP4"}];
